<?xml version="1.0" encoding="UTF-8"?>
<ndm xmlns:xsi="http://www.w3.org/2001/XMLSchema-instance" xsi:noNamespaceSchemaLocation="https://sanaregistry.org/r/ndmxml_unqualified/ndmxml-2.0.0-master-2.0.xsd">
<omm id="CCSDS_OMM_VERS" version="2.0">
<header><CREATION_DATE/><ORIGINATOR/></header><body><segment><metadata><OBJECT_NAME>QIANFAN-89</OBJECT_NAME><OBJECT_ID>2025-046S</OBJECT_ID><CENTER_NAME>EARTH</CENTER_NAME><REF_FRAME>TEME</REF_FRAME><TIME_SYSTEM>UTC</TIME_SYSTEM><MEAN_ELEMENT_THEORY>SGP4</MEAN_ELEMENT_THEORY></metadata><data><meanElements><EPOCH>2025-11-05T23:49:14.121984</EPOCH><MEAN_MOTION>13.50975038</MEAN_MOTION><ECCENTRICITY>.00150307</ECCENTRICITY><INCLINATION>88.9761</INCLINATION><RA_OF_ASC_NODE>323.8448</RA_OF_ASC_NODE><ARG_OF_PERICENTER>227.3335</ARG_OF_PERICENTER><MEAN_ANOMALY>132.6551</MEAN_ANOMALY></meanElements><tleParameters><EPHEMERIS_TYPE>0</EPHEMERIS_TYPE><CLASSIFICATION_TYPE>U</CLASSIFICATION_TYPE><NORAD_CAT_ID>63175</NORAD_CAT_ID><ELEMENT_SET_NO>999</ELEMENT_SET_NO><REV_AT_EPOCH>4244</REV_AT_EPOCH><BSTAR>.1436799E-3</BSTAR><MEAN_MOTION_DOT>.105E-5</MEAN_MOTION_DOT><MEAN_MOTION_DDOT>0</MEAN_MOTION_DDOT></tleParameters></data></segment></body></omm>
<omm id="CCSDS_OMM_VERS" version="2.0">
<header><CREATION_DATE/><ORIGINATOR/></header><body><segment><metadata><OBJECT_NAME>QIANFAN-90</OBJECT_NAME><OBJECT_ID>2025-046T</OBJECT_ID><CENTER_NAME>EARTH</CENTER_NAME><REF_FRAME>TEME</REF_FRAME><TIME_SYSTEM>UTC</TIME_SYSTEM><MEAN_ELEMENT_THEORY>SGP4</MEAN_ELEMENT_THEORY></metadata><data><meanElements><EPOCH>2025-11-05T22:43:56.731296</EPOCH><MEAN_MOTION>13.50974072</MEAN_MOTION><ECCENTRICITY>.00120249</ECCENTRICITY><INCLINATION>88.9761</INCLINATION><RA_OF_ASC_NODE>323.8218</RA_OF_ASC_NODE><ARG_OF_PERICENTER>224.2589</ARG_OF_PERICENTER><MEAN_ANOMALY>135.7602</MEAN_ANOMALY></meanElements><tleParameters><EPHEMERIS_TYPE>0</EPHEMERIS_TYPE><CLASSIFICATION_TYPE>U</CLASSIFICATION_TYPE><NORAD_CAT_ID>63176</NORAD_CAT_ID><ELEMENT_SET_NO>999</ELEMENT_SET_NO><REV_AT_EPOCH>4245</REV_AT_EPOCH><BSTAR>-.5546596E-5</BSTAR><MEAN_MOTION_DOT>.8E-7</MEAN_MOTION_DOT><MEAN_MOTION_DDOT>0</MEAN_MOTION_DDOT></tleParameters></data></segment></body></omm>
<omm id="CCSDS_OMM_VERS" version="2.0">
<header><CREATION_DATE/><ORIGINATOR/></header><body><segment><metadata><OBJECT_NAME>QIANFAN-91</OBJECT_NAME><OBJECT_ID>2025-233A</OBJECT_ID><CENTER_NAME>EARTH</CENTER_NAME><REF_FRAME>TEME</REF_FRAME><TIME_SYSTEM>UTC</TIME_SYSTEM><MEAN_ELEMENT_THEORY>SGP4</MEAN_ELEMENT_THEORY></metadata><data><meanElements><EPOCH>2025-11-05T22:04:25.117824</EPOCH><MEAN_MOTION>14.25918044</MEAN_MOTION><ECCENTRICITY>.00165498</ECCENTRICITY><INCLINATION>88.9952</INCLINATION><RA_OF_ASC_NODE>66.2698</RA_OF_ASC_NODE><ARG_OF_PERICENTER>147.9439</ARG_OF_PERICENTER><MEAN_ANOMALY>212.2765</MEAN_ANOMALY></meanElements><tleParameters><EPHEMERIS_TYPE>0</EPHEMERIS_TYPE><CLASSIFICATION_TYPE>U</CLASSIFICATION_TYPE><NORAD_CAT_ID>66033</NORAD_CAT_ID><ELEMENT_SET_NO>999</ELEMENT_SET_NO><REV_AT_EPOCH>279</REV_AT_EPOCH><BSTAR>.30987437E-3</BSTAR><MEAN_MOTION_DOT>.753E-5</MEAN_MOTION_DOT><MEAN_MOTION_DDOT>0</MEAN_MOTION_DDOT></tleParameters></data></segment></body></omm>
<omm id="CCSDS_OMM_VERS" version="2.0">
<header><CREATION_DATE/><ORIGINATOR/></header><body><segment><metadata><OBJECT_NAME>QIANFAN-92</OBJECT_NAME><OBJECT_ID>2025-233B</OBJECT_ID><CENTER_NAME>EARTH</CENTER_NAME><REF_FRAME>TEME</REF_FRAME><TIME_SYSTEM>UTC</TIME_SYSTEM><MEAN_ELEMENT_THEORY>SGP4</MEAN_ELEMENT_THEORY></metadata><data><meanElements><EPOCH>2025-11-05T22:03:19.166112</EPOCH><MEAN_MOTION>14.25999805</MEAN_MOTION><ECCENTRICITY>.00161482</ECCENTRICITY><INCLINATION>88.9951</INCLINATION><RA_OF_ASC_NODE>66.2695</RA_OF_ASC_NODE><ARG_OF_PERICENTER>150.4137</ARG_OF_PERICENTER><MEAN_ANOMALY>209.7973</MEAN_ANOMALY></meanElements><tleParameters><EPHEMERIS_TYPE>0</EPHEMERIS_TYPE><CLASSIFICATION_TYPE>U</CLASSIFICATION_TYPE><NORAD_CAT_ID>66034</NORAD_CAT_ID><ELEMENT_SET_NO>999</ELEMENT_SET_NO><REV_AT_EPOCH>279</REV_AT_EPOCH><BSTAR>.3042311E-3</BSTAR><MEAN_MOTION_DOT>.741E-5</MEAN_MOTION_DOT><MEAN_MOTION_DDOT>0</MEAN_MOTION_DDOT></tleParameters></data></segment></body></omm>
<omm id="CCSDS_OMM_VERS" version="2.0">
<header><CREATION_DATE/><ORIGINATOR/></header><body><segment><metadata><OBJECT_NAME>QIANFAN-93</OBJECT_NAME><OBJECT_ID>2025-233C</OBJECT_ID><CENTER_NAME>EARTH</CENTER_NAME><REF_FRAME>TEME</REF_FRAME><TIME_SYSTEM>UTC</TIME_SYSTEM><MEAN_ELEMENT_THEORY>SGP4</MEAN_ELEMENT_THEORY></metadata><data><meanElements><EPOCH>2025-11-05T22:01:37.996032</EPOCH><MEAN_MOTION>14.26083461</MEAN_MOTION><ECCENTRICITY>.0015465</ECCENTRICITY><INCLINATION>88.9952</INCLINATION><RA_OF_ASC_NODE>66.2695</RA_OF_ASC_NODE><ARG_OF_PERICENTER>149.7700</ARG_OF_PERICENTER><MEAN_ANOMALY>210.4389</MEAN_ANOMALY></meanElements><tleParameters><EPHEMERIS_TYPE>0</EPHEMERIS_TYPE><CLASSIFICATION_TYPE>U</CLASSIFICATION_TYPE><NORAD_CAT_ID>66035</NORAD_CAT_ID><ELEMENT_SET_NO>999</ELEMENT_SET_NO><REV_AT_EPOCH>279</REV_AT_EPOCH><BSTAR>.30763671E-3</BSTAR><MEAN_MOTION_DOT>.75E-5</MEAN_MOTION_DOT><MEAN_MOTION_DDOT>0</MEAN_MOTION_DDOT></tleParameters></data></segment></body></omm>
<omm id="CCSDS_OMM_VERS" version="2.0">
<header><CREATION_DATE/><ORIGINATOR/></header><body><segment><metadata><OBJECT_NAME>QIANFAN-94</OBJECT_NAME><OBJECT_ID>2025-233D</OBJECT_ID><CENTER_NAME>EARTH</CENTER_NAME><REF_FRAME>TEME</REF_FRAME><TIME_SYSTEM>UTC</TIME_SYSTEM><MEAN_ELEMENT_THEORY>SGP4</MEAN_ELEMENT_THEORY></metadata><data><meanElements><EPOCH>2025-11-05T22:01:12.934848</EPOCH><MEAN_MOTION>14.26108636</MEAN_MOTION><ECCENTRICITY>.0015538</ECCENTRICITY><INCLINATION>88.9952</INCLINATION><RA_OF_ASC_NODE>66.2695</RA_OF_ASC_NODE><ARG_OF_PERICENTER>149.4144</ARG_OF_PERICENTER><MEAN_ANOMALY>210.7959</MEAN_ANOMALY></meanElements><tleParameters><EPHEMERIS_TYPE>0</EPHEMERIS_TYPE><CLASSIFICATION_TYPE>U</CLASSIFICATION_TYPE><NORAD_CAT_ID>66036</NORAD_CAT_ID><ELEMENT_SET_NO>999</ELEMENT_SET_NO><REV_AT_EPOCH>279</REV_AT_EPOCH><BSTAR>.30933681E-3</BSTAR><MEAN_MOTION_DOT>.755E-5</MEAN_MOTION_DOT><MEAN_MOTION_DDOT>0</MEAN_MOTION_DDOT></tleParameters></data></segment></body></omm>
<omm id="CCSDS_OMM_VERS" version="2.0">
<header><CREATION_DATE/><ORIGINATOR/></header><body><segment><metadata><OBJECT_NAME>QIANFAN-95</OBJECT_NAME><OBJECT_ID>2025-233E</OBJECT_ID><CENTER_NAME>EARTH</CENTER_NAME><REF_FRAME>TEME</REF_FRAME><TIME_SYSTEM>UTC</TIME_SYSTEM><MEAN_ELEMENT_THEORY>SGP4</MEAN_ELEMENT_THEORY></metadata><data><meanElements><EPOCH>2025-11-05T22:00:41.424768</EPOCH><MEAN_MOTION>14.26153821</MEAN_MOTION><ECCENTRICITY>.0015498</ECCENTRICITY><INCLINATION>88.9952</INCLINATION><RA_OF_ASC_NODE>66.2694</RA_OF_ASC_NODE><ARG_OF_PERICENTER>149.8146</ARG_OF_PERICENTER><MEAN_ANOMALY>210.3943</MEAN_ANOMALY></meanElements><tleParameters><EPHEMERIS_TYPE>0</EPHEMERIS_TYPE><CLASSIFICATION_TYPE>U</CLASSIFICATION_TYPE><NORAD_CAT_ID>66037</NORAD_CAT_ID><ELEMENT_SET_NO>999</ELEMENT_SET_NO><REV_AT_EPOCH>279</REV_AT_EPOCH><BSTAR>.30834351E-3</BSTAR><MEAN_MOTION_DOT>.753E-5</MEAN_MOTION_DOT><MEAN_MOTION_DDOT>0</MEAN_MOTION_DDOT></tleParameters></data></segment></body></omm>
<omm id="CCSDS_OMM_VERS" version="2.0">
<header><CREATION_DATE/><ORIGINATOR/></header><body><segment><metadata><OBJECT_NAME>QIANFAN-96</OBJECT_NAME><OBJECT_ID>2025-233F</OBJECT_ID><CENTER_NAME>EARTH</CENTER_NAME><REF_FRAME>TEME</REF_FRAME><TIME_SYSTEM>UTC</TIME_SYSTEM><MEAN_ELEMENT_THEORY>SGP4</MEAN_ELEMENT_THEORY></metadata><data><meanElements><EPOCH>2025-11-05T22:00:18.859680</EPOCH><MEAN_MOTION>14.26157631</MEAN_MOTION><ECCENTRICITY>.00161388</ECCENTRICITY><INCLINATION>88.9952</INCLINATION><RA_OF_ASC_NODE>66.2693</RA_OF_ASC_NODE><ARG_OF_PERICENTER>151.7008</ARG_OF_PERICENTER><MEAN_ANOMALY>208.5065</MEAN_ANOMALY></meanElements><tleParameters><EPHEMERIS_TYPE>0</EPHEMERIS_TYPE><CLASSIFICATION_TYPE>U</CLASSIFICATION_TYPE><NORAD_CAT_ID>66038</NORAD_CAT_ID><ELEMENT_SET_NO>999</ELEMENT_SET_NO><REV_AT_EPOCH>279</REV_AT_EPOCH><BSTAR>.30373131E-3</BSTAR><MEAN_MOTION_DOT>.742E-5</MEAN_MOTION_DOT><MEAN_MOTION_DDOT>0</MEAN_MOTION_DDOT></tleParameters></data></segment></body></omm>

</ndm>
