QIANFAN-89              
1 63175U 25046S   25309.99252456  .00000105  00000+0  14368-3 0  9990
2 63175  88.9761 323.8448 0015030 227.3335 132.6551 13.50975038 42447
QIANFAN-90              
1 63176U 25046T   25309.94718439  .00000008  00000+0 -55466-5 0  9993
2 63176  88.9761 323.8218 0012024 224.2589 135.7602 13.50974072 42459
QIANFAN-91              
1 66033U 25233A   25309.91973516  .00000753  00000+0  30987-3 0  9997
2 66033  88.9952  66.2698 0016549 147.9439 212.2765 14.25918044  2791
QIANFAN-92              
1 66034U 25233B   25309.91897183  .00000741  00000+0  30423-3 0  9995
2 66034  88.9951  66.2695 0016148 150.4137 209.7973 14.25999805  2793
QIANFAN-93              
1 66035U 25233C   25309.91780088  .00000750  00000+0  30764-3 0  9999
2 66035  88.9952  66.2695 0015465 149.7700 210.4389 14.26083461  2796
QIANFAN-94              
1 66036U 25233D   25309.91751082  .00000755  00000+0  30934-3 0  9996
2 66036  88.9952  66.2695 0015538 149.4144 210.7959 14.26108636  2795
QIANFAN-95              
1 66037U 25233E   25309.91714612  .00000753  00000+0  30834-3 0  9992
2 66037  88.9952  66.2694 0015498 149.8146 210.3943 14.26153821  2791
QIANFAN-96              
1 66038U 25233F   25309.91688495  .00000742  00000+0  30373-3 0  9998
2 66038  88.9952  66.2693 0016138 151.7008 208.5065 14.26157631  2799
